[{"OBJECT_NAME":"STARLINK-5321","OBJECT_ID":"2023-010AK","EPOCH":"2026-03-09T23:19:06.645216","MEAN_MOTION":14.98355814,"ECCENTRICITY":0.00033983,"INCLINATION":70.0006,"RA_OF_ASC_NODE":23.6548,"ARG_OF_PERICENTER":273.9412,"MEAN_ANOMALY":86.1358,"EPHEMERIS_TYPE":0,"CLASSIFICATION_TYPE":"U","NORAD_CAT_ID":55302,"ELEMENT_SET_NO":999,"REV_AT_EPOCH":17331,"BSTAR":9.9820986e-5,"MEAN_MOTION_DOT":1.099e-5,"MEAN_MOTION_DDOT":0},{"OBJECT_NAME":"HYPSO-2","OBJECT_ID":"2024-149BR","EPOCH":"2026-03-09T15:24:17.277696","MEAN_MOTION":14.98259029,"ECCENTRICITY":0.00013898,"INCLINATION":97.6894,"RA_OF_ASC_NODE":146.3679,"ARG_OF_PERICENTER":74.8032,"MEAN_ANOMALY":285.3344,"EPHEMERIS_TYPE":0,"CLASSIFICATION_TYPE":"U","NORAD_CAT_ID":60531,"ELEMENT_SET_NO":999,"REV_AT_EPOCH":8514,"BSTAR":0.00033979817,"MEAN_MOTION_DOT":3.981e-5,"MEAN_MOTION_DDOT":0}]
